ATLAS CENTAUR 2         
1 00694U 63047A   26047.12384234  .00001448  00000+0  16210-3 0  9994
2 00694  30.3580 316.1599 0548103 250.2509 103.8192 14.12006028128579
THOR AGENA D R/B        
1 00733U 64002A   26047.86916861  .00000247  00000+0  10553-3 0  9998
2 00733  99.1230  60.0723 0032267 320.5639  39.3195 14.34007067235311
SL-3 R/B                
1 00877U 64053B   26047.40871749  .00000396  00000+0  10089-3 0  9997
2 00877  65.0771  33.6252 0078744 299.0025  60.3199 14.61345240263681
SL-8 R/B                
1 02802U 67045B   26047.88344883  .00000439  00000+0  12908-3 0  9997
2 02802  74.0111  26.9428 0063387  38.3489 322.2149 14.45600636 86014
SL-8 R/B                
1 03230U 68040B   26047.87814794  .00004269  00000+0  31728-3 0  9997
2 03230  74.0333 356.2092 0024867 186.5846 173.5020 15.03101171 86880
OAO 2                   
1 03597U 68110A   26047.05189042  .00000277  00000+0  79858-4 0  9994
2 03597  34.9947  26.0291 0005232  18.4976 341.5904 14.47294179 15964
ISIS 1                  
1 03669U 69009A   26047.74281361  .00000215  00000+0  13809-3 0  9990
2 03669  88.4554 157.5908 1707866 131.4241 244.6751 11.30406502346167
SERT 2                  
1 04327U 70009A   26047.86035242 -.00000009  00000+0  44212-4 0  9997
2 04327  99.2733 352.0967 0004231 210.3530 215.7312 13.58727591777063
SL-3 R/B                
1 05118U 71028B   26047.81209563  .00035118  00000+0  44076-3 0  9997
2 05118  81.2326  77.7850 0016539   8.1470 352.0047 15.59380244985416
ASTEX 1                 
1 05560U 71089A   26047.78514861  .00000486  00000+0  12371-3 0  9994
2 05560  92.7146 144.9972 0016843 148.4389 211.7831 14.50744998859277
SL-8 R/B                
1 05730U 71119B   26047.84849925  .00014959  00000+0  77579-3 0  9997
2 05730  73.8846 214.6549 0552584 185.5830 173.9006 14.37189353652499
OAO 3 (COPERNICUS)      
1 06153U 72065A   26047.48684588  .00000426  00000+0  91847-4 0  9999
2 06153  35.0061  58.1125 0006744 342.0464 180.2680 14.59978888843094
