CCSDS_OMM_VERS = 2.0
CREATION_DATE  = 
ORIGINATOR     = 

OBJECT_NAME    = ATLAS CENTAUR 2
OBJECT_ID      = 1963-047A
CENTER_NAME    = EARTH
REF_FRAME      = TEME
TIME_SYSTEM    = UTC
MEAN_ELEMENT_THEORY = SGP/SGP4

EPOCH          = 2026-02-16T02:58:19.978176
MEAN_MOTION    = 14.12006028
ECCENTRICITY   = .05481036
INCLINATION    = 30.3580
RA_OF_ASC_NODE = 316.1599
ARG_OF_PERICENTER = 250.2509
MEAN_ANOMALY   = 103.8192

EPHEMERIS_TYPE = 0
CLASSIFICATION_TYPE = U
NORAD_CAT_ID   = 694
ELEMENT_SET_NO = 999
REV_AT_EPOCH   = 12857
BSTAR          = .16210368E-3
MEAN_MOTION_DOT = .1448E-4
MEAN_MOTION_DDOT = 0

CCSDS_OMM_VERS = 2.0
CREATION_DATE  = 
ORIGINATOR     = 

OBJECT_NAME    = THOR AGENA D R/B
OBJECT_ID      = 1964-002A
CENTER_NAME    = EARTH
REF_FRAME      = TEME
TIME_SYSTEM    = UTC
MEAN_ELEMENT_THEORY = SGP/SGP4

EPOCH          = 2026-02-16T20:51:36.167904
MEAN_MOTION    = 14.34007067
ECCENTRICITY   = .0032267
INCLINATION    = 99.1230
RA_OF_ASC_NODE = 60.0723
ARG_OF_PERICENTER = 320.5639
MEAN_ANOMALY   = 39.3195

EPHEMERIS_TYPE = 0
CLASSIFICATION_TYPE = U
NORAD_CAT_ID   = 733
ELEMENT_SET_NO = 999
REV_AT_EPOCH   = 23531
BSTAR          = .10553E-3
MEAN_MOTION_DOT = .247E-5
MEAN_MOTION_DDOT = 0

CCSDS_OMM_VERS = 2.0
CREATION_DATE  = 
ORIGINATOR     = 

OBJECT_NAME    = SL-3 R/B
OBJECT_ID      = 1964-053B
CENTER_NAME    = EARTH
REF_FRAME      = TEME
TIME_SYSTEM    = UTC
MEAN_ELEMENT_THEORY = SGP/SGP4

EPOCH          = 2026-02-16T09:48:33.191136
MEAN_MOTION    = 14.61345240
ECCENTRICITY   = .00787447
INCLINATION    = 65.0771
RA_OF_ASC_NODE = 33.6252
ARG_OF_PERICENTER = 299.0025
MEAN_ANOMALY   = 60.3199

EPHEMERIS_TYPE = 0
CLASSIFICATION_TYPE = U
NORAD_CAT_ID   = 877
ELEMENT_SET_NO = 999
REV_AT_EPOCH   = 26368
BSTAR          = .10089022E-3
MEAN_MOTION_DOT = .396E-5
MEAN_MOTION_DDOT = 0

CCSDS_OMM_VERS = 2.0
CREATION_DATE  = 
ORIGINATOR     = 

OBJECT_NAME    = SL-8 R/B
OBJECT_ID      = 1967-045B
CENTER_NAME    = EARTH
REF_FRAME      = TEME
TIME_SYSTEM    = UTC
MEAN_ELEMENT_THEORY = SGP/SGP4

EPOCH          = 2026-02-16T21:12:09.978912
MEAN_MOTION    = 14.45600636
ECCENTRICITY   = .0063387
INCLINATION    = 74.0111
RA_OF_ASC_NODE = 26.9428
ARG_OF_PERICENTER = 38.3489
MEAN_ANOMALY   = 322.2149

EPHEMERIS_TYPE = 0
CLASSIFICATION_TYPE = U
NORAD_CAT_ID   = 2802
ELEMENT_SET_NO = 999
REV_AT_EPOCH   = 8601
BSTAR          = .12908E-3
MEAN_MOTION_DOT = .439E-5
MEAN_MOTION_DDOT = 0

CCSDS_OMM_VERS = 2.0
CREATION_DATE  = 
ORIGINATOR     = 

OBJECT_NAME    = SL-8 R/B
OBJECT_ID      = 1968-040B
CENTER_NAME    = EARTH
REF_FRAME      = TEME
TIME_SYSTEM    = UTC
MEAN_ELEMENT_THEORY = SGP/SGP4

EPOCH          = 2026-02-16T21:04:31.982016
MEAN_MOTION    = 15.03101171
ECCENTRICITY   = .0024867
INCLINATION    = 74.0333
RA_OF_ASC_NODE = 356.2092
ARG_OF_PERICENTER = 186.5846
MEAN_ANOMALY   = 173.5020

EPHEMERIS_TYPE = 0
CLASSIFICATION_TYPE = U
NORAD_CAT_ID   = 3230
ELEMENT_SET_NO = 999
REV_AT_EPOCH   = 8688
BSTAR          = .31728E-3
MEAN_MOTION_DOT = .4269E-4
MEAN_MOTION_DDOT = 0

CCSDS_OMM_VERS = 2.0
CREATION_DATE  = 
ORIGINATOR     = 

OBJECT_NAME    = OAO 2
OBJECT_ID      = 1968-110A
CENTER_NAME    = EARTH
REF_FRAME      = TEME
TIME_SYSTEM    = UTC
MEAN_ELEMENT_THEORY = SGP/SGP4

EPOCH          = 2026-02-16T01:14:43.332288
MEAN_MOTION    = 14.47294179
ECCENTRICITY   = .0005232
INCLINATION    = 34.9947
RA_OF_ASC_NODE = 26.0291
ARG_OF_PERICENTER = 18.4976
MEAN_ANOMALY   = 341.5904

EPHEMERIS_TYPE = 0
CLASSIFICATION_TYPE = U
NORAD_CAT_ID   = 3597
ELEMENT_SET_NO = 999
REV_AT_EPOCH   = 1596
BSTAR          = .79858364E-4
MEAN_MOTION_DOT = .277E-5
MEAN_MOTION_DDOT = 0

CCSDS_OMM_VERS = 2.0
CREATION_DATE  = 
ORIGINATOR     = 

OBJECT_NAME    = ISIS 1
OBJECT_ID      = 1969-009A
CENTER_NAME    = EARTH
REF_FRAME      = TEME
TIME_SYSTEM    = UTC
MEAN_ELEMENT_THEORY = SGP/SGP4

EPOCH          = 2026-02-16T17:49:39.095904
MEAN_MOTION    = 11.30406502
ECCENTRICITY   = .1707866
INCLINATION    = 88.4554
RA_OF_ASC_NODE = 157.5908
ARG_OF_PERICENTER = 131.4241
MEAN_ANOMALY   = 244.6751

EPHEMERIS_TYPE = 0
CLASSIFICATION_TYPE = U
NORAD_CAT_ID   = 3669
ELEMENT_SET_NO = 999
REV_AT_EPOCH   = 34616
BSTAR          = .13809E-3
MEAN_MOTION_DOT = .215E-5
MEAN_MOTION_DDOT = 0

CCSDS_OMM_VERS = 2.0
CREATION_DATE  = 
ORIGINATOR     = 

OBJECT_NAME    = SERT 2
OBJECT_ID      = 1970-009A
CENTER_NAME    = EARTH
REF_FRAME      = TEME
TIME_SYSTEM    = UTC
MEAN_ELEMENT_THEORY = SGP/SGP4

EPOCH          = 2026-02-16T20:38:54.449088
MEAN_MOTION    = 13.58727591
ECCENTRICITY   = .0004231
INCLINATION    = 99.2733
RA_OF_ASC_NODE = 352.0967
ARG_OF_PERICENTER = 210.3530
MEAN_ANOMALY   = 215.7312

EPHEMERIS_TYPE = 0
CLASSIFICATION_TYPE = U
NORAD_CAT_ID   = 4327
ELEMENT_SET_NO = 999
REV_AT_EPOCH   = 77706
BSTAR          = .44212E-4
MEAN_MOTION_DOT = -.9E-7
MEAN_MOTION_DDOT = 0

CCSDS_OMM_VERS = 2.0
CREATION_DATE  = 
ORIGINATOR     = 

OBJECT_NAME    = SL-3 R/B
OBJECT_ID      = 1971-028B
CENTER_NAME    = EARTH
REF_FRAME      = TEME
TIME_SYSTEM    = UTC
MEAN_ELEMENT_THEORY = SGP/SGP4

EPOCH          = 2026-02-16T19:29:25.062432
MEAN_MOTION    = 15.59380244
ECCENTRICITY   = .0016539
INCLINATION    = 81.2326
RA_OF_ASC_NODE = 77.7850
ARG_OF_PERICENTER = 8.1470
MEAN_ANOMALY   = 352.0047

EPHEMERIS_TYPE = 0
CLASSIFICATION_TYPE = U
NORAD_CAT_ID   = 5118
ELEMENT_SET_NO = 999
REV_AT_EPOCH   = 98541
BSTAR          = .44076E-3
MEAN_MOTION_DOT = .35118E-3
MEAN_MOTION_DDOT = 0

CCSDS_OMM_VERS = 2.0
CREATION_DATE  = 
ORIGINATOR     = 

OBJECT_NAME    = ASTEX 1
OBJECT_ID      = 1971-089A
CENTER_NAME    = EARTH
REF_FRAME      = TEME
TIME_SYSTEM    = UTC
MEAN_ELEMENT_THEORY = SGP/SGP4

EPOCH          = 2026-02-16T18:50:36.839904
MEAN_MOTION    = 14.50744998
ECCENTRICITY   = .0016843
INCLINATION    = 92.7146
RA_OF_ASC_NODE = 144.9972
ARG_OF_PERICENTER = 148.4389
MEAN_ANOMALY   = 211.7831

EPHEMERIS_TYPE = 0
CLASSIFICATION_TYPE = U
NORAD_CAT_ID   = 5560
ELEMENT_SET_NO = 999
REV_AT_EPOCH   = 85927
BSTAR          = .12371E-3
MEAN_MOTION_DOT = .486E-5
MEAN_MOTION_DDOT = 0

CCSDS_OMM_VERS = 2.0
CREATION_DATE  = 
ORIGINATOR     = 

OBJECT_NAME    = SL-8 R/B
OBJECT_ID      = 1971-119B
CENTER_NAME    = EARTH
REF_FRAME      = TEME
TIME_SYSTEM    = UTC
MEAN_ELEMENT_THEORY = SGP/SGP4

EPOCH          = 2026-02-16T20:21:50.335200
MEAN_MOTION    = 14.37189353
ECCENTRICITY   = .0552584
INCLINATION    = 73.8846
RA_OF_ASC_NODE = 214.6549
ARG_OF_PERICENTER = 185.5830
MEAN_ANOMALY   = 173.9006

EPHEMERIS_TYPE = 0
CLASSIFICATION_TYPE = U
NORAD_CAT_ID   = 5730
ELEMENT_SET_NO = 999
REV_AT_EPOCH   = 65249
BSTAR          = .77579E-3
MEAN_MOTION_DOT = .14959E-3
MEAN_MOTION_DDOT = 0

CCSDS_OMM_VERS = 2.0
CREATION_DATE  = 
ORIGINATOR     = 

OBJECT_NAME    = OAO 3 (COPERNICUS)
OBJECT_ID      = 1972-065A
CENTER_NAME    = EARTH
REF_FRAME      = TEME
TIME_SYSTEM    = UTC
MEAN_ELEMENT_THEORY = SGP/SGP4

EPOCH          = 2026-02-16T11:41:03.484032
MEAN_MOTION    = 14.59978888
ECCENTRICITY   = .00067447
INCLINATION    = 35.0061
RA_OF_ASC_NODE = 58.1125
ARG_OF_PERICENTER = 342.0464
MEAN_ANOMALY   = 180.2680

EPHEMERIS_TYPE = 0
CLASSIFICATION_TYPE = U
NORAD_CAT_ID   = 6153
ELEMENT_SET_NO = 999
REV_AT_EPOCH   = 84309
BSTAR          = .91846708E-4
MEAN_MOTION_DOT = .426E-5
MEAN_MOTION_DDOT = 0

